[{"OBJECT_NAME":"STARLINK-30201","OBJECT_ID":"2023-096M","EPOCH":"2026-03-09T22:00:01.999584","MEAN_MOTION":15.15735537,"ECCENTRICITY":0.00012732,"INCLINATION":43.0006,"RA_OF_ASC_NODE":221.3396,"ARG_OF_PERICENTER":317.2195,"MEAN_ANOMALY":216.3759,"EPHEMERIS_TYPE":0,"CLASSIFICATION_TYPE":"U","NORAD_CAT_ID":57301,"ELEMENT_SET_NO":999,"REV_AT_EPOCH":572,"BSTAR":0.0062653027,"MEAN_MOTION_DOT":0.00123499,"MEAN_MOTION_DDOT":0},{"OBJECT_NAME":"SL-3 R\/B","OBJECT_ID":"1988-032B","EPOCH":"2026-03-09T22:19:17.300640","MEAN_MOTION":15.19913684,"ECCENTRICITY":0.00244288,"INCLINATION":97.5196,"RA_OF_ASC_NODE":52.1801,"ARG_OF_PERICENTER":230.5802,"MEAN_ANOMALY":129.327,"EPHEMERIS_TYPE":0,"CLASSIFICATION_TYPE":"U","NORAD_CAT_ID":19046,"ELEMENT_SET_NO":999,"REV_AT_EPOCH":5214,"BSTAR":0.00028784627,"MEAN_MOTION_DOT":6.162e-5,"MEAN_MOTION_DDOT":0}]
